[{"OBJECT_NAME":"STARLINK-3551","OBJECT_ID":"2022-022AM","EPOCH":"2026-03-09T21:23:31.019136","MEAN_MOTION":15.08827359,"ECCENTRICITY":0.00011262,"INCLINATION":53.218,"RA_OF_ASC_NODE":358.2172,"ARG_OF_PERICENTER":110.197,"MEAN_ANOMALY":249.9144,"EPHEMERIS_TYPE":0,"CLASSIFICATION_TYPE":"U","NORAD_CAT_ID":51887,"ELEMENT_SET_NO":999,"REV_AT_EPOCH":22327,"BSTAR":0.00029121949,"MEAN_MOTION_DOT":4.348e-5,"MEAN_MOTION_DDOT":0},{"OBJECT_NAME":"LEMUR-2-AHMED-ASRAR","OBJECT_ID":"2024-149DN","EPOCH":"2026-03-09T17:35:01.338432","MEAN_MOTION":15.10376432,"ECCENTRICITY":0.00016334,"INCLINATION":97.7021,"RA_OF_ASC_NODE":152.9847,"ARG_OF_PERICENTER":18.5035,"MEAN_ANOMALY":341.6253,"EPHEMERIS_TYPE":0,"CLASSIFICATION_TYPE":"U","NORAD_CAT_ID":60576,"ELEMENT_SET_NO":999,"REV_AT_EPOCH":8554,"BSTAR":0.0007977347,"MEAN_MOTION_DOT":0.00013045,"MEAN_MOTION_DDOT":0}]
